     3.02           N: GNSS NAV DATA    J: QZSS             RINEX VERSION / TYPE
LgsRinex v1.7.8.0   SMO                 20171211 131243 UTC PGM / RUN BY / DATE
QZSA   1.7695D-08 -1.1921D-07 -5.9605D-08  1.1921D-07       IONOSPHERIC CORR
QZSB   1.4950D+05 -5.7344D+05 -5.6361D+06  8.3231D+06       IONOSPHERIC CORR
QZUT  1.4901161194D-08-8.881784197D-16 352256 1938          TIME SYSTEM CORR
    18    18  1929     7                                    LEAP SECONDS
                                                            END OF HEADER
J01 2017 12 11 12 00 00-2.137226983905D-04 2.000888343900D-11 0.000000000000D+00
     1.410000000000D+02-1.984375000000D+02 2.477603233686D-09-4.806374705370D-01
    -7.417052984238D-06 7.503799581900D-02 1.060403883457D-05 6.493303050995D+03
     1.296000000000D+05-1.119449734688D-06 1.359573827410D+00 2.533197402954D-07
     7.142151780432D-01-1.528750000000D+02-1.566882289474D+00-2.959408985549D-09
    -4.510902207322D-10 2.000000000000D+00 1.979000000000D+03 0.000000000000D+00
     2.800000000000D+00 0.000000000000D+00-5.587935447693D-09 9.090000000000D+02
     1.260000000000D+05 0.000000000000D+00
J02 2017 12 11 12 00 00 4.492700099945D-06 2.273736754432D-13 0.000000000000D+00
     1.410000000000D+02 2.396562500000D+02 2.456530978634D-09-2.817166132929D+00
     7.074326276779D-06 7.416593667585D-02-7.161870598793D-06 6.493185392380D+03
     1.296000000000D+05 5.215406417847D-08-2.648082786934D+00 5.606561899185D-07
     7.771927348884D-01 4.175312500000D+02-1.554719104337D+00-2.789401904071D-09
     1.050043732520D-10 2.000000000000D+00 1.979000000000D+03 0.000000000000D+00
     2.800000000000D+00 0.000000000000D+00 4.656612873077D-10 9.090000000000D+02
     1.260000000000D+05 0.000000000000D+00
J03 2017 12 03 09 00 00-1.191738992929D-04 5.343281372916D-12 0.000000000000D+00
     3.300000000000D+01-8.593437500000D+02-2.410814603504D-10 8.421448273752D-01
    -3.007985651493D-05 7.488789292984D-02-3.559514880180D-06 6.493082265854D+03
     3.240000000000D+04-1.501291990280D-06-8.355938275512D-01-6.675720214844D-06
     7.069072366096D-01 2.984375000000D+02-1.587961407321D+00 7.728893368003D-10
     1.429345197757D-09 2.000000000000D+00 1.978000000000D+03 0.000000000000D+00
     2.800000000000D+00 6.200000000000D+01 9.313225746155D-10 8.010000000000D+02
     2.880000000000D+04 0.000000000000D+00
J01 2017 12 11 13 00 00-2.136509865522D-04 2.000888343900D-11 0.000000000000D+00
     1.450000000000D+02-2.564687500000D+02 2.852976077605D-09-2.181447249120D-01
    -9.069219231606D-06 7.503000379074D-02 9.199604392052D-06 6.493278993607D+03
     1.332000000000D+05-4.675239324570D-07 1.359558308775D+00 2.048909664154D-08
     7.142134240045D-01-1.035625000000D+02-1.566833180777D+00-3.236563387285D-09
    -1.925080234111D-10 2.000000000000D+00 1.979000000000D+03 0.000000000000D+00
     2.800000000000D+00 0.000000000000D+00-5.587935447693D-09 9.130000000000D+02
     1.296000000000D+05 0.000000000000D+00
J02 2017 12 11 13 00 00 4.492234438658D-06 2.273736754432D-13 0.000000000000D+00
     1.450000000000D+02 2.495312500000D+02 2.087229722392D-09-2.554623893859D+00
     7.616356015205D-06 7.416773063596D-02-7.562339305878D-06 6.493180706024D+03
     1.332000000000D+05-1.640990376472D-06-2.648100641850D+00 3.073364496231D-07
     7.771952423300D-01 4.273750000000D+02-1.554704737018D+00-2.323311060946D-09
     5.596661467600D-10 2.000000000000D+00 1.979000000000D+03 0.000000000000D+00
     2.800000000000D+00 0.000000000000D+00 4.656612873077D-10 9.130000000000D+02
     1.296000000000D+05 0.000000000000D+00
